{
  "links" : {
    "next" : "https://api.nasa.gov/neo/rest/v1/feed?start_date=2014-01-16&end_date=2014-01-16&detailed=true&api_key=t0TVs3DtDT2H8Oy2Zy8m2eVrNsAVKAexjcZXUckd",
    "prev" : "https://api.nasa.gov/neo/rest/v1/feed?start_date=2014-01-14&end_date=2014-01-14&detailed=true&api_key=t0TVs3DtDT2H8Oy2Zy8m2eVrNsAVKAexjcZXUckd",
    "self" : "https://api.nasa.gov/neo/rest/v1/feed?start_date=2014-01-15&end_date=2014-01-15&detailed=true&api_key=t0TVs3DtDT2H8Oy2Zy8m2eVrNsAVKAexjcZXUckd"
  },
  "element_count" : 12,
  "near_earth_objects" : {
    "2014-01-15" : [ {
      "links" : {
        "self" : "https://api.nasa.gov/neo/rest/v1/neo/3029651?api_key=t0TVs3DtDT2H8Oy2Zy8m2eVrNsAVKAexjcZXUckd"
      },
      "neo_reference_id" : "3029651",
      "name" : "(2000 AG205)",
      "nasa_jpl_url" : "http://ssd.jpl.nasa.gov/sbdb.cgi?sstr=3029651",
      "absolute_magnitude_h" : 19.7,
      "estimated_diameter" : {
        "kilometers" : {
          "estimated_diameter_min" : 0.3051792326,
          "estimated_diameter_max" : 0.6824015094
        },
        "meters" : {
          "estimated_diameter_min" : 305.1792325939,
          "estimated_diameter_max" : 682.4015094011
        },
        "miles" : {
          "estimated_diameter_min" : 0.1896295249,
          "estimated_diameter_max" : 0.4240245083
        },
        "feet" : {
          "estimated_diameter_min" : 1001.2442334633,
          "estimated_diameter_max" : 2238.8501681036
        }
      },
      "is_potentially_hazardous_asteroid" : false,
      "close_approach_data" : [ {
        "close_approach_date" : "2014-01-15",
        "epoch_date_close_approach" : 1389772800000,
        "relative_velocity" : {
          "kilometers_per_second" : "16.3381467508",
          "kilometers_per_hour" : "58817.328302858",
          "miles_per_hour" : "36546.8004668509"
        },
        "miss_distance" : {
          "astronomical" : "0.364478915",
          "lunar" : "141.7823028564",
          "kilometers" : "54525272",
          "miles" : "33880432"
        },
        "orbiting_body" : "Earth"
      } ],
      "orbital_data" : {
        "orbit_id" : "28",
        "orbit_determination_date" : "2017-04-06 09:17:10",
        "orbit_uncertainty" : "0",
        "minimum_orbit_intersection" : ".265163",
        "jupiter_tisserand_invariant" : "3.346",
        "epoch_osculation" : "2458000.5",
        "eccentricity" : ".5218369647003612",
        "semi_major_axis" : "2.290616580877761",
        "inclination" : "18.4123809678543",
        "ascending_node_longitude" : "269.8934784758638",
        "orbital_period" : "1266.272067640992",
        "perihelion_distance" : "1.095288177020191",
        "perihelion_argument" : "249.0709912802234",
        "aphelion_distance" : "3.485944984735331",
        "perihelion_time" : "2457967.911811040859",
        "mean_anomaly" : "9.264792555320595",
        "mean_motion" : ".2842990927460509",
        "equinox" : "J2000"
      }
    }, {
      "links" : {
        "self" : "https://api.nasa.gov/neo/rest/v1/neo/3303217?api_key=t0TVs3DtDT2H8Oy2Zy8m2eVrNsAVKAexjcZXUckd"
      },
      "neo_reference_id" : "3303217",
      "name" : "(2005 WX)",
      "nasa_jpl_url" : "http://ssd.jpl.nasa.gov/sbdb.cgi?sstr=3303217",
      "absolute_magnitude_h" : 26.9,
      "estimated_diameter" : {
        "kilometers" : {
          "estimated_diameter_min" : 0.0110803882,
          "estimated_diameter_max" : 0.0247765013
        },
        "meters" : {
          "estimated_diameter_min" : 11.0803882126,
          "estimated_diameter_max" : 24.7765012606
        },
        "miles" : {
          "estimated_diameter_min" : 0.0068850319,
          "estimated_diameter_max" : 0.0153953994
        },
        "feet" : {
          "estimated_diameter_min" : 36.3529808636,
          "estimated_diameter_max" : 81.2877363957
        }
      },
      "is_potentially_hazardous_asteroid" : false,
      "close_approach_data" : [ {
        "close_approach_date" : "2014-01-15",
        "epoch_date_close_approach" : 1389772800000,
        "relative_velocity" : {
          "kilometers_per_second" : "17.1200607622",
          "kilometers_per_hour" : "61632.2187440874",
          "miles_per_hour" : "38295.8639190692"
        },
        "miss_distance" : {
          "astronomical" : "0.3915873288",
          "lunar" : "152.3274688721",
          "kilometers" : "58580628",
          "miles" : "36400316"
        },
        "orbiting_body" : "Earth"
      } ],
      "orbital_data" : {
        "orbit_id" : "9",
        "orbit_determination_date" : "2017-04-06 09:09:51",
        "orbit_uncertainty" : "7",
        "minimum_orbit_intersection" : ".00942737",
        "jupiter_tisserand_invariant" : "4.280",
        "epoch_osculation" : "2458000.5",
        "eccentricity" : ".376755007137461",
        "semi_major_axis" : "1.597967875630957",
        "inclination" : "4.401313302283969",
        "ascending_node_longitude" : "241.9541949068227",
        "orbital_period" : "737.8201188276944",
        "perihelion_distance" : ".9959254772421826",
        "perihelion_argument" : "180.4400223021835",
        "aphelion_distance" : "2.200010274019732",
        "perihelion_time" : "2458121.500911108444",
        "mean_anomaly" : "300.9607750080714",
        "mean_motion" : ".4879238052928074",
        "equinox" : "J2000"
      }
    }, {
      "links" : {
        "self" : "https://api.nasa.gov/neo/rest/v1/neo/3479011?api_key=t0TVs3DtDT2H8Oy2Zy8m2eVrNsAVKAexjcZXUckd"
      },
      "neo_reference_id" : "3479011",
      "name" : "(2009 WZ104)",
      "nasa_jpl_url" : "http://ssd.jpl.nasa.gov/sbdb.cgi?sstr=3479011",
      "absolute_magnitude_h" : 20.4,
      "estimated_diameter" : {
        "kilometers" : {
          "estimated_diameter_min" : 0.2210828104,
          "estimated_diameter_max" : 0.4943561926
        },
        "meters" : {
          "estimated_diameter_min" : 221.0828103591,
          "estimated_diameter_max" : 494.3561926196
        },
        "miles" : {
          "estimated_diameter_min" : 0.137374447,
          "estimated_diameter_max" : 0.3071786018
        },
        "feet" : {
          "estimated_diameter_min" : 725.3373275385,
          "estimated_diameter_max" : 1621.9035709942
        }
      },
      "is_potentially_hazardous_asteroid" : true,
      "close_approach_data" : [ {
        "close_approach_date" : "2014-01-15",
        "epoch_date_close_approach" : 1389772800000,
        "relative_velocity" : {
          "kilometers_per_second" : "7.6420817007",
          "kilometers_per_hour" : "27511.4941226015",
          "miles_per_hour" : "17094.5725563465"
        },
        "miss_distance" : {
          "astronomical" : "0.1359319088",
          "lunar" : "52.8775138855",
          "kilometers" : "20335124",
          "miles" : "12635660"
        },
        "orbiting_body" : "Earth"
      } ],
      "orbital_data" : {
        "orbit_id" : "55",
        "orbit_determination_date" : "2017-04-06 08:58:55",
        "orbit_uncertainty" : "1",
        "minimum_orbit_intersection" : ".0306929",
        "jupiter_tisserand_invariant" : "6.867",
        "epoch_osculation" : "2457800.5",
        "eccentricity" : ".1926435192942337",
        "semi_major_axis" : ".8553546514853113",
        "inclination" : "9.834744247511509",
        "ascending_node_longitude" : "263.2807382780202",
        "orbital_period" : "288.9467134407876",
        "perihelion_distance" : ".6905761211784882",
        "perihelion_argument" : "10.54402284841301",
        "aphelion_distance" : "1.020133181792134",
        "perihelion_time" : "2457942.734036696943",
        "mean_anomaly" : "182.789978812503",
        "mean_motion" : "1.245904463536226",
        "equinox" : "J2000"
      }
    } ]
  }
}